QIANFAN-17              
1 60395U 24140S   25311.25686619  .00000046  00000+0  53454-4 0  9993
2 60395  88.9741 303.1095 0013561 314.3724  45.6315 13.50971542 63340
QIANFAN-18              
1 60396U 24140T   25311.23627124  .00000050  00000+0  59617-4 0  9990
2 60396  88.9733 302.6477 0012504 295.2933  64.6923 13.50971570 62734
QIANFAN-19              
1 61552U 24185A   25311.27927876  .00000854  00000+0  44011-3 0  9998
2 61552  88.9799  81.9978 0008743  67.4465 292.7647 14.14237569 64657
QIANFAN-20              
1 61553U 24185B   25311.24568853  .00000717  00000+0  40762-3 0  9999
2 61553  88.9796  82.2898 0007973  97.6598 262.5491 14.08781539 64494
QIANFAN-21              
1 61554U 24185C   25311.29923368  .00001108  00000+0  48971-3 0  9996
2 61554  88.9715  81.1238 0012608 115.3156 244.9343 14.22529407 64930
QIANFAN-22              
1 61555U 24185D   25311.27761104  .00000322  00000+0  26686-3 0  9999
2 61555  88.9780  83.1252 0008490 102.6689 257.5432 13.86283032 64024
QIANFAN-23              
1 61556U 24185E   25311.30465555  .00000858  00000+0  42628-3 0  9993
2 61556  88.9791  81.8213 0009709  76.0506 284.1761 14.16236021 64734
QIANFAN-24              
1 61557U 24185F   25311.26156563  .00001005  00000+0  43366-3 0  9990
2 61557  88.9773  81.2892 0011201  61.6306 298.6014 14.23733224 64972
